{
  "type": "FeatureCollection",
  "features": [
    {
      "type": "Feature",
      "properties": {
        "norad_id": 37132,
        "name": "COSMOS 2251 DEB",
        "group": "cosmos-2251-debris",
        "lat": -4.241688402663675,
        "lon": 75.79457256104325,
        "alt_km": 658.4061582078402,
        "timestamp": "2025-12-02T07:10:09.513852+00:00",
        "meta_object_name": "COSMOS 2251 DEB",
        "meta_object_id": "1993-036BHE",
        "meta_epoch": "2025-11-29T01:57:55.161216",
        "meta_mean_motion": 14.77491911,
        "meta_eccentricity": 0.00393056,
        "meta_inclination": 74.0019,
        "meta_ra_of_asc_node": 260.8973,
        "meta_arg_of_pericenter": 60.0895,
        "meta_mean_anomaly": 300.4174,
        "meta_ephemeris_type": 0,
        "meta_classification_type": "U",
        "meta_norad_cat_id": 37132,
        "meta_element_set_no": 999,
        "meta_rev_at_epoch": 62214,
        "meta_bstar": 0.0012599445,
        "meta_mean_motion_dot": 9.078e-05,
        "meta_mean_motion_ddot": 0,
        "tle_line1": "1 37132U 93036BHE 25333.08188844  .00009078  00000+0  12599-2 0  9995",
        "tle_line2": "2 37132  74.0019 260.8973 0039305  60.0895 300.4174 14.77491911622140"
      },
      "geometry": {
        "type": "Point",
        "coordinates": [
          75.79457256104325,
          -4.241688402663675
        ]
      }
    },
    {
      "type": "Feature",
      "properties": {
        "norad_id": 37270,
        "name": "COSMOS 2251 DEB",
        "group": "cosmos-2251-debris",
        "lat": 73.17108847527312,
        "lon": 100.61271340030036,
        "alt_km": 1009.1687341374782,
        "timestamp": "2025-12-02T07:10:09.513862+00:00",
        "meta_object_name": "COSMOS 2251 DEB",
        "meta_object_id": "1993-036BHJ",
        "meta_epoch": "2025-12-01T02:28:33.040416",
        "meta_mean_motion": 13.59625006,
        "meta_eccentricity": 0.0397803,
        "meta_inclination": 73.9339,
        "meta_ra_of_asc_node": 354.8735,
        "meta_arg_of_pericenter": 8.9198,
        "meta_mean_anomaly": 351.871,
        "meta_ephemeris_type": 0,
        "meta_classification_type": "U",
        "meta_norad_cat_id": 37270,
        "meta_element_set_no": 999,
        "meta_rev_at_epoch": 76911,
        "meta_bstar": 0.0032507777,
        "meta_mean_motion_dot": 4.044e-05,
        "meta_mean_motion_ddot": 0,
        "tle_line1": "1 37270U 93036BHJ 25335.10316019  .00004044  00000+0  32508-2 0  9990",
        "tle_line2": "2 37270  73.9339 354.8735 0397803   8.9198 351.8710 13.59625006769111"
      },
      "geometry": {
        "type": "Point",
        "coordinates": [
          100.61271340030036,
          73.17108847527312
        ]
      }
    },
    {
      "type": "Feature",
      "properties": {
        "norad_id": 37278,
        "name": "COSMOS 2251 DEB",
        "group": "cosmos-2251-debris",
        "lat": -15.767680440593491,
        "lon": -167.1495420622624,
        "alt_km": 630.3201594861821,
        "timestamp": "2025-12-02T07:10:09.513882+00:00",
        "meta_object_name": "COSMOS 2251 DEB",
        "meta_object_id": "1993-036BHS",
        "meta_epoch": "2025-12-01T18:57:57.153312",
        "meta_mean_motion": 14.1499711,
        "meta_eccentricity": 0.0300307,
        "meta_inclination": 73.7866,
        "meta_ra_of_asc_node": 9.0548,
        "meta_arg_of_pericenter": 193.3578,
        "meta_mean_anomaly": 293.5627,
        "meta_ephemeris_type": 0,
        "meta_classification_type": "U",
        "meta_norad_cat_id": 37278,
        "meta_element_set_no": 999,
        "meta_rev_at_epoch": 63674,
        "meta_bstar": 0.0011132,
        "meta_mean_motion_dot": 3.306e-05,
        "meta_mean_motion_ddot": 0,
        "tle_line1": "1 37278U 93036BHS 25335.79024483  .00003306  00000+0  11132-2 0  9994",
        "tle_line2": "2 37278  73.7866   9.0548 0300307 193.3578 293.5627 14.14997110636748"
      },
      "geometry": {
        "type": "Point",
        "coordinates": [
          -167.1495420622624,
          -15.767680440593491
        ]
      }
    },
    {
      "type": "Feature",
      "properties": {
        "norad_id": 37280,
        "name": "COSMOS 2251 DEB",
        "group": "cosmos-2251-debris",
        "lat": -11.417495264352652,
        "lon": 72.41770454980812,
        "alt_km": 906.4025233187194,
        "timestamp": "2025-12-02T07:10:09.513894+00:00",
        "meta_object_name": "COSMOS 2251 DEB",
        "meta_object_id": "1993-036BHU",
        "meta_epoch": "2025-11-30T23:04:54.840576",
        "meta_mean_motion": 14.19162583,
        "meta_eccentricity": 0.01319274,
        "meta_inclination": 74.0312,
        "meta_ra_of_asc_node": 78.1212,
        "meta_arg_of_pericenter": 209.0596,
        "meta_mean_anomaly": 150.3162,
        "meta_ephemeris_type": 0,
        "meta_classification_type": "U",
        "meta_norad_cat_id": 37280,
        "meta_element_set_no": 999,
        "meta_rev_at_epoch": 57156,
        "meta_bstar": 0.0021058958,
        "meta_mean_motion_dot": 4.785e-05,
        "meta_mean_motion_ddot": 0,
        "tle_line1": "1 37280U 93036BHU 25334.96174584  .00004785  00000+0  21059-2 0  9994",
        "tle_line2": "2 37280  74.0312  78.1212 0131927 209.0596 150.3162 14.19162583571566"
      },
      "geometry": {
        "type": "Point",
        "coordinates": [
          72.41770454980812,
          -11.417495264352652
        ]
      }
    },
    {
      "type": "Feature",
      "properties": {
        "norad_id": 37284,
        "name": "COSMOS 2251 DEB",
        "group": "cosmos-2251-debris",
        "lat": -49.762461951549426,
        "lon": 15.01173643816068,
        "alt_km": 868.517628101411,
        "timestamp": "2025-12-02T07:10:09.513904+00:00",
        "meta_object_name": "COSMOS 2251 DEB",
        "meta_object_id": "1993-036BHY",
        "meta_epoch": "2025-12-01T19:55:42.843072",
        "meta_mean_motion": 14.12627021,
        "meta_eccentricity": 0.0160539,
        "meta_inclination": 74.0146,
        "meta_ra_of_asc_node": 176.0394,
        "meta_arg_of_pericenter": 330.0872,
        "meta_mean_anomaly": 43.3273,
        "meta_ephemeris_type": 0,
        "meta_classification_type": "U",
        "meta_norad_cat_id": 37284,
        "meta_element_set_no": 999,
        "meta_rev_at_epoch": 59021,
        "meta_bstar": 0.0011944,
        "meta_mean_motion_dot": 2.474e-05,
        "meta_mean_motion_ddot": 0,
        "tle_line1": "1 37284U 93036BHY 25335.83035698  .00002474  00000+0  11944-2 0  9992",
        "tle_line2": "2 37284  74.0146 176.0394 0160539 330.0872  43.3273 14.12627021590210"
      },
      "geometry": {
        "type": "Point",
        "coordinates": [
          15.01173643816068,
          -49.762461951549426
        ]
      }
    },
    {
      "type": "Feature",
      "properties": {
        "norad_id": 37295,
        "name": "COSMOS 2251 DEB",
        "group": "cosmos-2251-debris",
        "lat": 71.95141980884102,
        "lon": 60.089792086073956,
        "alt_km": 641.5893215952055,
        "timestamp": "2025-12-02T07:10:09.513914+00:00",
        "meta_object_name": "COSMOS 2251 DEB",
        "meta_object_id": "1993-036BJK",
        "meta_epoch": "2025-12-01T04:30:08.731584",
        "meta_mean_motion": 14.65123594,
        "meta_eccentricity": 0.00437469,
        "meta_inclination": 74.0068,
        "meta_ra_of_asc_node": 303.8923,
        "meta_arg_of_pericenter": 126.7963,
        "meta_mean_anomaly": 233.7233,
        "meta_ephemeris_type": 0,
        "meta_classification_type": "U",
        "meta_norad_cat_id": 37295,
        "meta_element_set_no": 999,
        "meta_rev_at_epoch": 82135,
        "meta_bstar": 0.00057778641,
        "meta_mean_motion_dot": 3.118e-05,
        "meta_mean_motion_ddot": 0,
        "tle_line1": "1 37295U 93036BJK 25335.18760106  .00003118  00000+0  57779-3 0  9994",
        "tle_line2": "2 37295  74.0068 303.8923 0043746 126.7963 233.7233 14.65123594821351"
      },
      "geometry": {
        "type": "Point",
        "coordinates": [
          60.089792086073956,
          71.95141980884102
        ]
      }
    },
    {
      "type": "Feature",
      "properties": {
        "norad_id": 37305,
        "name": "COSMOS 2251 DEB",
        "group": "cosmos-2251-debris",
        "lat": -66.24253165362222,
        "lon": 170.9925966246725,
        "alt_km": 744.3135556732032,
        "timestamp": "2025-12-02T07:10:09.513924+00:00",
        "meta_object_name": "COSMOS 2251 DEB",
        "meta_object_id": "1993-036BJV",
        "meta_epoch": "2025-12-01T04:54:57.845088",
        "meta_mean_motion": 14.36058989,
        "meta_eccentricity": 0.0050534,
        "meta_inclination": 73.8694,
        "meta_ra_of_asc_node": 311.9126,
        "meta_arg_of_pericenter": 273.9871,
        "meta_mean_anomaly": 85.5504,
        "meta_ephemeris_type": 0,
        "meta_classification_type": "U",
        "meta_norad_cat_id": 37305,
        "meta_element_set_no": 999,
        "meta_rev_at_epoch": 66701,
        "meta_bstar": 0.00088749,
        "meta_mean_motion_dot": 2.593e-05,
        "meta_mean_motion_ddot": 0,
        "tle_line1": "1 37305U 93036BJV 25335.20483617  .00002593  00000+0  88749-3 0  9995",
        "tle_line2": "2 37305  73.8694 311.9126 0050534 273.9871  85.5504 14.36058989667014"
      },
      "geometry": {
        "type": "Point",
        "coordinates": [
          170.9925966246725,
          -66.24253165362222
        ]
      }
    }
  ]
}